NOAA 8 [-]              
1 13923U 83022A   17346.46530242  .00000042  00000-0  33699-4 0  9990
2 13923  98.5286 332.4348 0015364   3.8480 356.2817 14.28617813807342
